0 COSMOS 2251 DEB
1 34624U 93036WV  13282.09471852  .00010258  00000-0  30161-2 0  7203
2 34624 074.0259 144.8972 0040748 214.4531 305.9179 14.43323456243228
0 COSMOS 2251 DEB
1 34624U 93036WV  13284.02923271  .00008628  00000-0  25373-2 0  7213
2 34624 074.0274 141.3029 0040748 209.6287 278.4309 14.43348847243493
0 COSMOS 2251 DEB
1 34624U 93036WV  13286.04353208  .00008006  00000-0  23543-2 0  7222
2 34624 074.0300 137.5556 0040493 204.9425 305.4070 14.43376447243790
0 COSMOS 2251 DEB
1 34624U 93036WV  13288.05613196  .00013917  00000-0  40803-2 0  7236
2 34624 074.0255 133.8143 0040418 201.1566 322.8604 14.43408450244081
0 COSMOS 2251 DEB
1 34624U 93036WV  13289.55534130  .00012269  00000-0  35973-2 0  7244
2 34624 074.0248 131.0272 0040127 197.5792 193.6783 14.43437238244293
0 COSMOS 2251 DEB
1 34624U 93036WV  13292.00612237  .00009989  00000-0  29285-2 0  7258
2 34624 074.0245 126.4701 0040037 192.2511 329.2659 14.43483644244657
0 COSMOS 2251 DEB
1 34624U 93036WV  13294.98622116  .00012946  00000-0  37876-2 0  7267
2 34624 074.0256 120.9287 0039882 185.8063 335.9855 14.43537856245088
